{
    "links": {
        "self": "http://www.neowsapp.com/rest/v1/neo/3763948?api_key=iIulBulltgU6a56xZRHN4H3l9WmuAYTsLGpBGhQ2"
    },
    "id": "3763948",
    "neo_reference_id": "3763948",
    "name": "(2016 WW)",
    "designation": "2016 WW",
    "nasa_jpl_url": "http://ssd.jpl.nasa.gov/sbdb.cgi?sstr=3763948",
    "absolute_magnitude_h": 25.3,
    "estimated_diameter": {
        "kilometers": {
            "estimated_diameter_min": 0.0231502122,
            "estimated_diameter_max": 0.0517654482
        },
        "meters": {
            "estimated_diameter_min": 23.150212221,
            "estimated_diameter_max": 51.7654482198
        },
        "miles": {
            "estimated_diameter_min": 0.0143848705,
            "estimated_diameter_max": 0.0321655483
        },
        "feet": {
            "estimated_diameter_min": 75.9521422633,
            "estimated_diameter_max": 169.8341531374
        }
    },
    "is_potentially_hazardous_asteroid": false,
    "close_approach_data": [
        {
            "close_approach_date": "2016-11-10",
            "close_approach_date_full": "2016-Nov-10 08:39",
            "epoch_date_close_approach": 1478767140000,
            "relative_velocity": {
                "kilometers_per_second": "15.0190309633",
                "kilometers_per_hour": "54068.511468028",
                "miles_per_hour": "33596.0703618977"
            },
            "miss_distance": {
                "astronomical": "0.0350233815",
                "lunar": "13.6240954035",
                "kilometers": "5239423.272597405",
                "miles": "3255626.656177989"
            },
            "orbiting_body": "Earth"
        },
        {
            "close_approach_date": "2017-12-25",
            "close_approach_date_full": "2017-Dec-25 02:08",
            "epoch_date_close_approach": 1514167680000,
            "relative_velocity": {
                "kilometers_per_second": "8.8690668201",
                "kilometers_per_hour": "31928.6405524858",
                "miles_per_hour": "19839.2155699598"
            },
            "miss_distance": {
                "astronomical": "0.0915962021",
                "lunar": "35.6309226169",
                "kilometers": "13702596.734249527",
                "miles": "8514398.7927443926"
            },
            "orbiting_body": "Mars"
        },
        {
            "close_approach_date": "2054-11-21",
            "close_approach_date_full": "2054-Nov-21 10:06",
            "epoch_date_close_approach": 2678868360000,
            "relative_velocity": {
                "kilometers_per_second": "20.8346869475",
                "kilometers_per_hour": "75004.8730111314",
                "miles_per_hour": "46605.1112329444"
            },
            "miss_distance": {
                "astronomical": "0.2161984236",
                "lunar": "84.1011867804",
                "kilometers": "32342823.667917732",
                "miles": "20096898.7216674216"
            },
            "orbiting_body": "Earth"
        },
        {
            "close_approach_date": "2096-05-30",
            "close_approach_date_full": "2096-May-30 03:58",
            "epoch_date_close_approach": 3989188680000,
            "relative_velocity": {
                "kilometers_per_second": "8.3364578936",
                "kilometers_per_hour": "30011.2484168928",
                "miles_per_hour": "18647.8226621521"
            },
            "miss_distance": {
                "astronomical": "0.0750313109",
                "lunar": "29.1871799401",
                "kilometers": "11224524.293947783",
                "miles": "6974595.9799460854"
            },
            "orbiting_body": "Mars"
        }
    ],
    "orbital_data": {
        "orbit_id": "3",
        "orbit_determination_date": "2017-04-06 08:22:07",
        "first_observation_date": "2016-11-19",
        "last_observation_date": "2016-11-21",
        "data_arc_in_days": 2,
        "observations_used": 21,
        "orbit_uncertainty": "9",
        "minimum_orbit_intersection": ".0243154",
        "jupiter_tisserand_invariant": "4.625",
        "epoch_osculation": "2457712.5",
        "eccentricity": ".4886888954988568",
        "semi_major_axis": "1.398571191118653",
        "inclination": "1.846763472560816",
        "ascending_node_longitude": "289.9573053921186",
        "orbital_period": "604.1228936810546",
        "perihelion_distance": ".7151049804543578",
        "perihelion_argument": "35.65579265249131",
        "aphelion_distance": "2.082037401782948",
        "perihelion_time": "2457650.891187682093",
        "mean_anomaly": "36.71301429963018",
        "mean_motion": ".5959052433958267",
        "equinox": "J2000",
        "orbit_class": {
            "orbit_class_type": "APO",
            "orbit_class_description": "Near-Earth asteroid orbits which cross the Earth’s orbit similar to that of 1862 Apollo",
            "orbit_class_range": "a (semi-major axis) > 1.0 AU; q (perihelion) < 1.017 AU"
        }
    },
    "is_sentry_object": false
}